FLOCK 4G-18             
1 62680U 25009BZ  26068.19114186  .00011766  00000+0  44319-3 0  9995
2 62680  97.4054 150.5008 0004100 335.7331  24.3715 15.27241676121267
STARLINK-34076          
1 63915U 25095AB  26068.32993305  .00042303  00000+0  15376-2 0  9996
2 63915  42.9964 178.1680 0000672 245.5679 114.5103 15.27588334 47725
